format  = 'OEF2.0'       ! file format
rectype = 'ML'           ! record type (1L/ML)
refsys  = ECLM J2000     ! default reference system
END_OF_HEADER
2023BU
! Keplerian elements: a, e, i, long. node, arg. peric., mean anomaly
 KEP   1.1065377598995945E+00  1.1033785949922163E-01   3.7319281364199 125.1107532823364 356.0855117128673  1.5555475576291448E+02
 MJD     61000.000000000 TDT
 MAG  29.699  0.150
! Non-gravitational parameters: model used, number of model parameters, dimension
 LSP   0  0    6
! PERIHELION   9.8444475201720960E-01
! APHELION   1.2286307677819794E+00
! ANODE  -2.9445778397861247E-04
! DNODE   2.1163628826386241E-01
! MOID   2.9620170402587580E-04
! PERIOD   4.2515548336380101E+02
! PHA F
! VINFTY     2.9361762860244
! U_PAR 1.9
! ORB_TYPE Apollo
! RMS    7.90172E-08   6.36045E-08   1.32576E-06   7.48910E-07   1.77699E-05   9.77898E-05
 COV   6.243715410885363E-15  5.023854892545615E-15 -5.985072717530114E-14
 COV   3.413557221998357E-14  2.503512582721237E-13 -7.647098955581235E-12
 COV   4.045532139886210E-15 -4.874176694956536E-14  2.718736016063719E-14
 COV   1.701304430340693E-13 -6.127924546499117E-12  1.757646656768324E-12
 COV   3.157565257528197E-13  2.937179389573202E-12  6.851782486534793E-11
 COV   5.608661250027506E-13  3.894704007610558E-12 -4.413165906628341E-11
 COV   3.157694914281481E-10 -5.518416744041336E-10  9.562852490400386E-09
 COR   1.000000000000000E+00  9.996033643577459E-01 -5.713235095486400E-01
 COR   5.768408821697589E-01  1.782966342070324E-01 -9.896495509272809E-01
 COR   1.000000000000000E+00 -5.780263740280736E-01  5.707548457624234E-01
 COR   1.505251682201989E-01 -9.852168999356383E-01  1.000000000000000E+00
 COR   3.180218381664046E-01  1.246750646326242E-01  5.284988577924792E-01
 COR   1.000000000000000E+00  2.926575741633490E-01 -6.025969384300304E-01
 COR   1.000000000000000E+00 -3.175672312355040E-01  9.999999999999999E-01
